DELTA 2 R/B(1)          
1 20453U 90008B   25338.67252819  .00067994  00000+0  11183-2 0  9992
2 20453  35.6067  72.5929 0112200 104.8425 256.4766 15.44323457911383
COSMOS 2058             
1 20465U 90010A   25338.67556632  .00008968  00000+0  54457-3 0  9996
2 20465  82.4633 140.9631 0008459 307.4414  52.6045 15.10352149927896
SL-14 R/B               
1 20466U 90010B   25338.58382281  .00000848  00000+0  10018-3 0  9998
2 20466  82.5022 356.7075 0018341 251.9369 107.9848 14.83459835914386
SL-14 R/B               
1 20511U 90018B   25338.44271719  .00000945  00000+0  11589-3 0  9997
2 20511  82.5203 312.1201 0017583  49.2084 311.0652 14.82033325908479
HST                     
1 20580U 90037B   25338.30113913  .00015652  00000+0  55018-3 0  9996
2 20580  28.4702 329.9177 0002049 143.2197 216.8539 15.27866357758701
SL-16 R/B               
1 20625U 90046B   25338.68697472  .00000277  00000+0  16738-3 0  9997
2 20625  70.9983 137.4331 0011895  88.1894 272.0591 14.14999218834950
COSMOS 2084             
1 20663U 90055A   25338.59473931  .00006443  00000+0  46104-3 0  9992
2 20663  62.7912 299.7438 0032983 173.6524 186.5001 15.04937933922009
SL-6 R/B(2)             
1 20666U 90055D   25338.65073902  .00004678  00000+0  35963-3 0  9995
2 20666  62.7832 216.8997 0011983 302.4757  57.5183 15.03020293923909
SL-8 R/B                
1 20775U 90078B   25338.51454309  .00039210  00000+0  12142-2 0  9993
2 20775  82.9042 336.6707 0374652 333.5675  24.6841 14.85422869795150
SL-8 R/B                
1 21088U 91006B   25338.68836564  .00000121  00000+0  10663-3 0  9994
2 21088  82.9430 240.7011 0021483 303.6606 118.6916 13.77488729750992
OKEAN-3                 
1 21397U 91039A   25338.69884243  .00007144  00000+0  51382-3 0  9996
2 21397  82.5188  68.8301 0013022 295.0705  64.9169 15.04037268850754
COSMOS 2151             
1 21422U 91042A   25338.68314647  .00003975  00000+0  32011-3 0  9990
2 21422  82.4955 175.2667 0013327  26.3842 333.8057 14.99639377848952
