CCSDS_OMM_VERS = 2.0
CREATION_DATE  = 
ORIGINATOR     = 

OBJECT_NAME    = DELTA 2 R/B(1)
OBJECT_ID      = 1990-008B
CENTER_NAME    = EARTH
REF_FRAME      = TEME
TIME_SYSTEM    = UTC
MEAN_ELEMENT_THEORY = SGP/SGP4

EPOCH          = 2025-12-04T16:08:26.435616
MEAN_MOTION    = 15.44323457
ECCENTRICITY   = .01122
INCLINATION    = 35.6067
RA_OF_ASC_NODE = 72.5929
ARG_OF_PERICENTER = 104.8425
MEAN_ANOMALY   = 256.4766

EPHEMERIS_TYPE = 0
CLASSIFICATION_TYPE = U
NORAD_CAT_ID   = 20453
ELEMENT_SET_NO = 999
REV_AT_EPOCH   = 91138
BSTAR          = .11183E-2
MEAN_MOTION_DOT = .67994E-3
MEAN_MOTION_DDOT = 0

CCSDS_OMM_VERS = 2.0
CREATION_DATE  = 
ORIGINATOR     = 

OBJECT_NAME    = COSMOS 2058
OBJECT_ID      = 1990-010A
CENTER_NAME    = EARTH
REF_FRAME      = TEME
TIME_SYSTEM    = UTC
MEAN_ELEMENT_THEORY = SGP/SGP4

EPOCH          = 2025-12-04T16:12:48.930048
MEAN_MOTION    = 15.10352149
ECCENTRICITY   = .0008459
INCLINATION    = 82.4633
RA_OF_ASC_NODE = 140.9631
ARG_OF_PERICENTER = 307.4414
MEAN_ANOMALY   = 52.6045

EPHEMERIS_TYPE = 0
CLASSIFICATION_TYPE = U
NORAD_CAT_ID   = 20465
ELEMENT_SET_NO = 999
REV_AT_EPOCH   = 92789
BSTAR          = .54457E-3
MEAN_MOTION_DOT = .8968E-4
MEAN_MOTION_DDOT = 0

CCSDS_OMM_VERS = 2.0
CREATION_DATE  = 
ORIGINATOR     = 

OBJECT_NAME    = SL-14 R/B
OBJECT_ID      = 1990-010B
CENTER_NAME    = EARTH
REF_FRAME      = TEME
TIME_SYSTEM    = UTC
MEAN_ELEMENT_THEORY = SGP/SGP4

EPOCH          = 2025-12-04T14:00:42.290784
MEAN_MOTION    = 14.83459835
ECCENTRICITY   = .0018341
INCLINATION    = 82.5022
RA_OF_ASC_NODE = 356.7075
ARG_OF_PERICENTER = 251.9369
MEAN_ANOMALY   = 107.9848

EPHEMERIS_TYPE = 0
CLASSIFICATION_TYPE = U
NORAD_CAT_ID   = 20466
ELEMENT_SET_NO = 999
REV_AT_EPOCH   = 91438
BSTAR          = .10018E-3
MEAN_MOTION_DOT = .848E-5
MEAN_MOTION_DDOT = 0

CCSDS_OMM_VERS = 2.0
CREATION_DATE  = 
ORIGINATOR     = 

OBJECT_NAME    = SL-14 R/B
OBJECT_ID      = 1990-018B
CENTER_NAME    = EARTH
REF_FRAME      = TEME
TIME_SYSTEM    = UTC
MEAN_ELEMENT_THEORY = SGP/SGP4

EPOCH          = 2025-12-04T10:37:30.765216
MEAN_MOTION    = 14.82033325
ECCENTRICITY   = .0017583
INCLINATION    = 82.5203
RA_OF_ASC_NODE = 312.1201
ARG_OF_PERICENTER = 49.2084
MEAN_ANOMALY   = 311.0652

EPHEMERIS_TYPE = 0
CLASSIFICATION_TYPE = U
NORAD_CAT_ID   = 20511
ELEMENT_SET_NO = 999
REV_AT_EPOCH   = 90847
BSTAR          = .11589E-3
MEAN_MOTION_DOT = .945E-5
MEAN_MOTION_DDOT = 0

CCSDS_OMM_VERS = 2.0
CREATION_DATE  = 
ORIGINATOR     = 

OBJECT_NAME    = HST
OBJECT_ID      = 1990-037B
CENTER_NAME    = EARTH
REF_FRAME      = TEME
TIME_SYSTEM    = UTC
MEAN_ELEMENT_THEORY = SGP/SGP4

EPOCH          = 2025-12-04T07:13:38.420832
MEAN_MOTION    = 15.27866357
ECCENTRICITY   = .0002049
INCLINATION    = 28.4702
RA_OF_ASC_NODE = 329.9177
ARG_OF_PERICENTER = 143.2197
MEAN_ANOMALY   = 216.8539

EPHEMERIS_TYPE = 0
CLASSIFICATION_TYPE = U
NORAD_CAT_ID   = 20580
ELEMENT_SET_NO = 999
REV_AT_EPOCH   = 75870
BSTAR          = .55018E-3
MEAN_MOTION_DOT = .15652E-3
MEAN_MOTION_DDOT = 0

CCSDS_OMM_VERS = 2.0
CREATION_DATE  = 
ORIGINATOR     = 

OBJECT_NAME    = SL-16 R/B
OBJECT_ID      = 1990-046B
CENTER_NAME    = EARTH
REF_FRAME      = TEME
TIME_SYSTEM    = UTC
MEAN_ELEMENT_THEORY = SGP/SGP4

EPOCH          = 2025-12-04T16:29:14.615808
MEAN_MOTION    = 14.14999218
ECCENTRICITY   = .0011895
INCLINATION    = 70.9983
RA_OF_ASC_NODE = 137.4331
ARG_OF_PERICENTER = 88.1894
MEAN_ANOMALY   = 272.0591

EPHEMERIS_TYPE = 0
CLASSIFICATION_TYPE = U
NORAD_CAT_ID   = 20625
ELEMENT_SET_NO = 999
REV_AT_EPOCH   = 83495
BSTAR          = .16738E-3
MEAN_MOTION_DOT = .277E-5
MEAN_MOTION_DDOT = 0

CCSDS_OMM_VERS = 2.0
CREATION_DATE  = 
ORIGINATOR     = 

OBJECT_NAME    = COSMOS 2084
OBJECT_ID      = 1990-055A
CENTER_NAME    = EARTH
REF_FRAME      = TEME
TIME_SYSTEM    = UTC
MEAN_ELEMENT_THEORY = SGP/SGP4

EPOCH          = 2025-12-04T14:16:25.476384
MEAN_MOTION    = 15.04937933
ECCENTRICITY   = .0032983
INCLINATION    = 62.7912
RA_OF_ASC_NODE = 299.7438
ARG_OF_PERICENTER = 173.6524
MEAN_ANOMALY   = 186.5001

EPHEMERIS_TYPE = 0
CLASSIFICATION_TYPE = U
NORAD_CAT_ID   = 20663
ELEMENT_SET_NO = 999
REV_AT_EPOCH   = 92200
BSTAR          = .46104E-3
MEAN_MOTION_DOT = .6443E-4
MEAN_MOTION_DDOT = 0

CCSDS_OMM_VERS = 2.0
CREATION_DATE  = 
ORIGINATOR     = 

OBJECT_NAME    = SL-6 R/B(2)
OBJECT_ID      = 1990-055D
CENTER_NAME    = EARTH
REF_FRAME      = TEME
TIME_SYSTEM    = UTC
MEAN_ELEMENT_THEORY = SGP/SGP4

EPOCH          = 2025-12-04T15:37:03.851328
MEAN_MOTION    = 15.03020293
ECCENTRICITY   = .0011983
INCLINATION    = 62.7832
RA_OF_ASC_NODE = 216.8997
ARG_OF_PERICENTER = 302.4757
MEAN_ANOMALY   = 57.5183

EPHEMERIS_TYPE = 0
CLASSIFICATION_TYPE = U
NORAD_CAT_ID   = 20666
ELEMENT_SET_NO = 999
REV_AT_EPOCH   = 92390
BSTAR          = .35963E-3
MEAN_MOTION_DOT = .4678E-4
MEAN_MOTION_DDOT = 0

CCSDS_OMM_VERS = 2.0
CREATION_DATE  = 
ORIGINATOR     = 

OBJECT_NAME    = SL-8 R/B
OBJECT_ID      = 1990-078B
CENTER_NAME    = EARTH
REF_FRAME      = TEME
TIME_SYSTEM    = UTC
MEAN_ELEMENT_THEORY = SGP/SGP4

EPOCH          = 2025-12-04T12:20:56.522976
MEAN_MOTION    = 14.85422869
ECCENTRICITY   = .0374652
INCLINATION    = 82.9042
RA_OF_ASC_NODE = 336.6707
ARG_OF_PERICENTER = 333.5675
MEAN_ANOMALY   = 24.6841

EPHEMERIS_TYPE = 0
CLASSIFICATION_TYPE = U
NORAD_CAT_ID   = 20775
ELEMENT_SET_NO = 999
REV_AT_EPOCH   = 79515
BSTAR          = .12142E-2
MEAN_MOTION_DOT = .3921E-3
MEAN_MOTION_DDOT = 0

CCSDS_OMM_VERS = 2.0
CREATION_DATE  = 
ORIGINATOR     = 

OBJECT_NAME    = SL-8 R/B
OBJECT_ID      = 1991-006B
CENTER_NAME    = EARTH
REF_FRAME      = TEME
TIME_SYSTEM    = UTC
MEAN_ELEMENT_THEORY = SGP/SGP4

EPOCH          = 2025-12-04T16:31:14.791296
MEAN_MOTION    = 13.77488729
ECCENTRICITY   = .0021483
INCLINATION    = 82.9430
RA_OF_ASC_NODE = 240.7011
ARG_OF_PERICENTER = 303.6606
MEAN_ANOMALY   = 118.6916

EPHEMERIS_TYPE = 0
CLASSIFICATION_TYPE = U
NORAD_CAT_ID   = 21088
ELEMENT_SET_NO = 999
REV_AT_EPOCH   = 75099
BSTAR          = .10663E-3
MEAN_MOTION_DOT = .121E-5
MEAN_MOTION_DDOT = 0

CCSDS_OMM_VERS = 2.0
CREATION_DATE  = 
ORIGINATOR     = 

OBJECT_NAME    = OKEAN-3
OBJECT_ID      = 1991-039A
CENTER_NAME    = EARTH
REF_FRAME      = TEME
TIME_SYSTEM    = UTC
MEAN_ELEMENT_THEORY = SGP/SGP4

EPOCH          = 2025-12-04T16:46:19.985952
MEAN_MOTION    = 15.04037268
ECCENTRICITY   = .0013022
INCLINATION    = 82.5188
RA_OF_ASC_NODE = 68.8301
ARG_OF_PERICENTER = 295.0705
MEAN_ANOMALY   = 64.9169

EPHEMERIS_TYPE = 0
CLASSIFICATION_TYPE = U
NORAD_CAT_ID   = 21397
ELEMENT_SET_NO = 999
REV_AT_EPOCH   = 85075
BSTAR          = .51382E-3
MEAN_MOTION_DOT = .7144E-4
MEAN_MOTION_DDOT = 0

CCSDS_OMM_VERS = 2.0
CREATION_DATE  = 
ORIGINATOR     = 

OBJECT_NAME    = COSMOS 2151
OBJECT_ID      = 1991-042A
CENTER_NAME    = EARTH
REF_FRAME      = TEME
TIME_SYSTEM    = UTC
MEAN_ELEMENT_THEORY = SGP/SGP4

EPOCH          = 2025-12-04T16:23:43.855008
MEAN_MOTION    = 14.99639377
ECCENTRICITY   = .0013327
INCLINATION    = 82.4955
RA_OF_ASC_NODE = 175.2667
ARG_OF_PERICENTER = 26.3842
MEAN_ANOMALY   = 333.8057

EPHEMERIS_TYPE = 0
CLASSIFICATION_TYPE = U
NORAD_CAT_ID   = 21422
ELEMENT_SET_NO = 999
REV_AT_EPOCH   = 84895
BSTAR          = .32011E-3
MEAN_MOTION_DOT = .3975E-4
MEAN_MOTION_DDOT = 0

